NORAD_CAT_ID,OBJECT_NAME,OBJECT_TYPE,EPOCH,MEAN_MOTION,ECCENTRICITY,INCLINATION,RA_OF_ASC_NODE,ARG_OF_PERICENTER,MEAN_ANOMALY,BSTAR,MEAN_MOTION_DOT,MEAN_MOTION_DDOT,TLE_LINE0,TLE_LINE1,TLE_LINE2,SEMIMAJOR_AXIS,PERIOD,APOGEE,PERIGEE,DECAYED
50207.0,STARLINK-3262,PAYLOAD,2023-09-02 20:30:27,15.08843411,0.0001536,53.2186,43.933,96.0417,264.075,8.7796e-05,1.11e-05,0.0,0 STARLINK-3262,1 50207U 21125BD  23245.85448895  .00001110  00000-0  87796-4 0  9996,2 50207  53.2186  43.9330 0001536  96.0417 264.0750 15.08843411 96010,6917.87,95.437,540.798,538.672,0.0
50207.0,STARLINK-3262,PAYLOAD,2023-09-03 10:48:56,15.08841023,0.0001272,53.2179,41.2559,97.0565,263.0572,7.8536e-05,9.62e-06,0.0,0 STARLINK-3262,1 50207U 21125BD  23246.45065012  .00000962  00000-0  78536-4 0  9995,2 50207  53.2179  41.2559 0001272  97.0565 263.0572 15.08841023 96106,6917.877,95.437,540.622,538.862,0.0
50207.0,STARLINK-3262,PAYLOAD,2023-09-04 10:39:43,15.08828714,0.0001151,53.2176,36.7974,88.617,271.4954,5.1191e-05,5.27e-06,0.0,0 STARLINK-3262,1 50207U 21125BD  23247.44425915  .00000527  00000-0  51191-4 0  9992,2 50207  53.2176  36.7974 0001151  88.6170 271.4954 15.08828714 96252,6917.915,95.438,540.576,538.984,0.0
50207.0,STARLINK-3262,PAYLOAD,2023-09-05 02:33:35,15.08839765,0.000125,53.2187,33.8232,89.1287,270.9848,1.6775e-06,-2.61e-06,0.0,0 STARLINK-3262,1 50207U 21125BD  23248.10665512 -.00000261  00000-0  16775-5 0  9991,2 50207  53.2187  33.8232 0001250  89.1287 270.9848 15.08839765 96359,6917.881,95.438,540.611,538.881,0.0
50207.0,STARLINK-3262,PAYLOAD,2023-09-05 16:52:02,15.08860192,0.0001162,53.2186,31.1465,85.6161,274.4964,-0.00029641,-5.005e-05,0.0,0 STARLINK-3262,1 50207U 21125BD  23248.70281232 -.00005005  00000-0 -29641-3 0  9996,2 50207  53.2186  31.1465 0001162  85.6161 274.4964 15.08860192 96447,6917.819,95.436,540.488,538.88,0.0
50207.0,STARLINK-3262,PAYLOAD,2023-09-06 02:24:22,15.0883623,0.0001312,53.2189,29.3622,87.7968,272.3174,9.4531e-05,1.217e-05,0.0,0 STARLINK-3262,1 50207U 21125BD  23249.10025705  .00001217  00000-0  94531-4 0  9992,2 50207  53.2189  29.3622 0001312  87.7968 272.3174 15.08836230 96502,6917.892,95.438,540.665,538.849,0.0
50207.0,STARLINK-3262,PAYLOAD,2023-09-06 11:56:41,15.08838286,0.000128,53.2188,27.578,92.1704,267.9435,8.7091e-05,1.098e-05,0.0,0 STARLINK-3262,1 50207U 21125BD  23249.49769724  .00001098  00000-0  87091-4 0  9990,2 50207  53.2188  27.5780 0001280  92.1704 267.9435 15.08838286 96567,6917.886,95.438,540.636,538.865,0.0
50207.0,STARLINK-3262,PAYLOAD,2023-09-06 18:18:13,15.08844332,0.0001278,53.2185,26.389,94.2916,265.8222,0.0001367,1.889e-05,0.0,0 STARLINK-3262,1 50207U 21125BD  23249.76265217  .00001889  00000-0  13670-3 0  9997,2 50207  53.2185  26.3890 0001278  94.2916 265.8222 15.08844332 96603,6917.867,95.437,540.616,538.848,0.0
50207.0,STARLINK-3262,PAYLOAD,2023-09-07 02:15:08,15.0884664,0.0001246,53.2194,24.9016,82.0008,278.1126,0.00011013,1.466e-05,0.0,0 STARLINK-3262,1 50207U 21125BD  23250.09385117  .00001466  00000-0  11013-3 0  9997,2 50207  53.2194  24.9016 0001246  82.0008 278.1126 15.08846640 96658,6917.86,95.437,540.587,538.863,0.0
50207.0,STARLINK-3262,PAYLOAD,2023-09-07 10:12:05,15.08838802,0.0001891,53.2172,23.4135,79.9805,280.14,9.0311e-05,1.149e-05,0.0,0 STARLINK-3262,1 50207U 21125BD  23250.42505911  .00001149  00000-0  90311-4 0  9997,2 50207  53.2172  23.4135 0001891  79.9805 280.1400 15.08838802 96701,6917.884,95.438,541.057,538.441,0.0
50207.0,STARLINK-3262,PAYLOAD,2023-09-07 18:09:00,15.08840455,0.0001769,53.2174,21.9275,79.7465,280.3726,1.9558e-05,2.3e-07,0.0,0 STARLINK-3262,1 50207U 21125BD  23250.75625998  .00000023  00000-0  19558-4 0  9995,2 50207  53.2174  21.9275 0001769  79.7465 280.3726 15.08840455 96750,6917.879,95.438,540.968,538.52,0.0
50207.0,STARLINK-3262,PAYLOAD,2023-09-08 13:13:38,15.0884188,0.0001438,53.2183,18.3596,86.7208,273.3949,4.4014e-05,4.13e-06,0.0,0 STARLINK-3262,1 50207U 21125BD  23251.55113728  .00000413  00000-0  44014-4 0  9995,2 50207  53.2183  18.3596 0001438  86.7208 273.3949 15.08841880 96877,6917.875,95.437,540.734,538.745,0.0
50207.0,STARLINK-3262,PAYLOAD,2023-09-08 14:49:01,15.08845532,0.0001477,53.2184,18.0626,81.8279,278.288,1.7085e-05,-1.6e-07,0.0,0 STARLINK-3262,1 50207U 21125BD  23251.61737608 -.00000016  00000-0  17085-4 0  9999,2 50207  53.2184  18.0626 0001477  81.8279 278.2880 15.08845532 96883,6917.863,95.437,540.75,538.707,0.0
50207.0,STARLINK-3262,PAYLOAD,2023-09-09 08:18:16,15.08833908,0.0001333,53.2184,14.7923,81.5311,278.5832,6.5017e-05,7.47e-06,0.0,0 STARLINK-3262,1 50207U 21125BD  23252.34602096  .00000747  00000-0  65017-4 0  9990,2 50207  53.2184  14.7923 0001333  81.5311 278.5832 15.08833908 96997,6917.899,95.438,540.686,538.842,0.0
50207.0,STARLINK-3262,PAYLOAD,2023-09-09 13:04:25,15.08833799,0.0001294,53.2185,13.9001,82.2044,277.9095,0.00013684,1.89e-05,0.0,0 STARLINK-3262,1 50207U 21125BD  23252.54474020  .00001890  00000-0  13684-3 0  9998,2 50207  53.2185  13.9001 0001294  82.2044 277.9095 15.08833799 97020,6917.899,95.438,540.66,538.869,0.0
50207.0,STARLINK-3262,PAYLOAD,2023-09-09 14:39:48,15.08842598,0.0001271,53.2184,13.602,88.0673,272.0464,6.6411e-05,7.69e-06,0.0,0 STARLINK-3262,1 50207U 21125BD  23252.61097604  .00000769  00000-0  66411-4 0  9996,2 50207  53.2184  13.6020 0001271  88.0673 272.0464 15.08842598 97038,6917.872,95.437,540.617,538.858,0.0
50207.0,STARLINK-3262,PAYLOAD,2023-09-10 12:55:12,15.08837564,0.000127,53.2185,9.4398,88.37,271.7437,0.00015861,2.237e-05,0.0,0 STARLINK-3262,1 50207U 21125BD  23253.53833750  .00002237  00000-0  15861-3 0  9992,2 50207  53.2185   9.4398 0001270  88.3700 271.7437 15.08837564 97171,6917.888,95.438,540.631,538.874,0.0
50207.0,STARLINK-3262,PAYLOAD,2023-09-10 17:41:21,15.08850609,0.0001389,53.2191,8.547,87.5256,272.5895,5.8309e-05,6.4e-06,0.0,0 STARLINK-3262,1 50207U 21125BD  23253.73705153  .00000640  00000-0  58309-4 0  9990,2 50207  53.2191   8.5470 0001389  87.5256 272.5895 15.08850609 97203,6917.848,95.437,540.674,538.752,0.0
50207.0,STARLINK-3262,PAYLOAD,2023-09-11 14:21:22,15.08839868,0.0001372,53.2193,4.6835,84.113,276.0018,4.6293e-05,4.49e-06,0.0,0 STARLINK-3262,1 50207U 21125BD  23254.59818082  .00000449  00000-0  46293-4 0  9997,2 50207  53.2193   4.6835 0001372  84.1130 276.0018 15.08839868 97337,6917.881,95.438,540.695,538.797,0.0
50207.0,STARLINK-3262,PAYLOAD,2023-09-11 17:32:08,15.0884224,0.0001343,53.219,4.087,82.3366,277.7778,6.3036e-05,7.16e-06,0.0,0 STARLINK-3262,1 50207U 21125BD  23254.73065889  .00000716  00000-0  63036-4 0  9993,2 50207  53.2190   4.0870 0001343  82.3366 277.7778 15.08842240 97357,6917.874,95.437,540.668,538.809,0.0
50207.0,STARLINK-3262,PAYLOAD,2023-09-12 12:36:46,15.08847205,0.0001302,53.2187,0.5209,80.8309,279.283,6.2053e-05,7e-06,0.0,0 STARLINK-3262,1 50207U 21125BD  23255.52553721  .00000700  00000-0  62053-4 0  9999,2 50207  53.2187   0.5209 0001302  80.8309 279.2830 15.08847205 97470,6917.858,95.437,540.624,538.823,0.0
50207.0,STARLINK-3262,PAYLOAD,2023-09-12 14:12:09,15.0885242,0.0001397,53.2194,0.224,87.385,272.7302,7.4456e-05,8.98e-06,0.0,0 STARLINK-3262,1 50207U 21125BD  23255.59177325  .00000898  00000-0  74456-4 0  9996,2 50207  53.2194   0.2240 0001397  87.3850 272.7302 15.08852420 97485,6917.842,95.437,540.674,538.741,0.0
50207.0,STARLINK-3262,PAYLOAD,2023-09-12 23:44:28,15.08848609,0.0001339,53.219,358.4371,88.9567,271.1579,2.2693e-05,7.3e-07,0.0,0 STARLINK-3262,1 50207U 21125BD  23255.98921433  .00000073  00000-0  22693-4 0  9997,2 50207  53.2190 358.4371 0001339  88.9567 271.1579 15.08848609 97542,6917.854,95.437,540.645,538.793,0.0
50207.0,STARLINK-3262,PAYLOAD,2023-09-13 12:27:33,15.08850553,0.0001419,53.22,356.0597,81.1851,278.9302,0.00011803,1.592e-05,0.0,0 STARLINK-3262,1 50207U 21125BD  23256.51913258  .00001592  00000-0  11803-3 0  9990,2 50207  53.2200 356.0597 0001419  81.1851 278.9302 15.08850553 97627,6917.848,95.437,540.695,538.731,0.0
50207.0,STARLINK-3262,PAYLOAD,2023-09-13 17:13:42,15.08851914,0.0001505,53.2199,355.1642,67.9986,292.1166,0.000199,2.882e-05,0.0,0 STARLINK-3262,1 50207U 21125BD  23256.71784943  .00002882  00000-0  19900-3 0  9998,2 50207  53.2199 355.1642 0001505  67.9986 292.1166 15.08851914 97653,6917.844,95.437,540.75,538.668,0.0
50207.0,STARLINK-3262,PAYLOAD,2023-09-13 23:35:15,15.08831597,0.0001361,53.2186,353.9792,70.2863,289.8276,-0.00013572,-2.447e-05,0.0,0 STARLINK-3262,1 50207U 21125BD  23256.98281992 -.00002447  00000-0 -13572-3 0  9991,2 50207  53.2186 353.9792 0001361  70.2863 289.8276 15.08831597 97696,6917.906,95.438,540.713,538.83,0.0
50207.0,STARLINK-3262,PAYLOAD,2023-09-14 10:42:58,15.08813892,0.0001545,53.2195,351.8972,79.877,280.2397,-0.00035823,-5.981e-05,0.0,0 STARLINK-3262,1 50207U 21125BD  23257.44651488 -.00005981  00000-0 -35823-3 0  9993,2 50207  53.2195 351.8972 0001545  79.8770 280.2397 15.08813892 97764,6917.96,95.439,540.894,538.756,0.0
50207.0,STARLINK-3262,PAYLOAD,2023-09-14 12:18:22,15.08814487,0.0001619,53.2193,351.5994,78.7752,281.3422,-0.00035625,-5.949e-05,0.0,0 STARLINK-3262,1 50207U 21125BD  23257.51275577 -.00005949  00000-0 -35625-3 0  9996,2 50207  53.2193 351.5994 0001619  78.7752 281.3422 15.08814487 97776,6917.958,95.439,540.943,538.703,0.0
50207.0,STARLINK-3262,PAYLOAD,2023-09-14 13:53:45,15.08815604,0.000155,53.2193,351.3019,78.4268,281.6898,-0.00035516,-5.932e-05,0.0,0 STARLINK-3262,1 50207U 21125BD  23257.57899580 -.00005932  00000-0 -35516-3 0  9999,2 50207  53.2193 351.3019 0001550  78.4268 281.6898 15.08815604 97788,6917.955,95.439,540.892,538.748,0.0
50207.0,STARLINK-3262,PAYLOAD,2023-09-14 23:26:04,15.08825253,0.0001438,53.2187,349.5177,74.1432,285.9718,-0.00015076,-2.685e-05,0.0,0 STARLINK-3262,1 50207U 21125BD  23257.97643539 -.00002685  00000-0 -15076-3 0  9995,2 50207  53.2187 349.5177 0001438  74.1432 285.9718 15.08825253 97842,6917.925,95.438,540.785,538.796,0.0
